{
    "links": {
        "self": "http://www.neowsapp.com/rest/v1/neo/3841715?api_key=iIulBulltgU6a56xZRHN4H3l9WmuAYTsLGpBGhQ2"
    },
    "id": "3841715",
    "neo_reference_id": "3841715",
    "name": "(2019 JT1)",
    "designation": "2019 JT1",
    "nasa_jpl_url": "http://ssd.jpl.nasa.gov/sbdb.cgi?sstr=3841715",
    "absolute_magnitude_h": 24.7,
    "estimated_diameter": {
        "kilometers": {
            "estimated_diameter_min": 0.0305179233,
            "estimated_diameter_max": 0.0682401509
        },
        "meters": {
            "estimated_diameter_min": 30.5179232594,
            "estimated_diameter_max": 68.2401509401
        },
        "miles": {
            "estimated_diameter_min": 0.0189629525,
            "estimated_diameter_max": 0.0424024508
        },
        "feet": {
            "estimated_diameter_min": 100.1244233463,
            "estimated_diameter_max": 223.8850168104
        }
    },
    "is_potentially_hazardous_asteroid": false,
    "close_approach_data": [
        {
            "close_approach_date": "2019-04-19",
            "close_approach_date_full": "2019-Apr-19 22:36",
            "epoch_date_close_approach": 1555713360000,
            "relative_velocity": {
                "kilometers_per_second": "2.7723225678",
                "kilometers_per_hour": "9980.3612441427",
                "miles_per_hour": "6201.4083519508"
            },
            "miss_distance": {
                "astronomical": "0.1402825282",
                "lunar": "54.5699034698",
                "kilometers": "20985967.416934934",
                "miles": "13040075.4765487292"
            },
            "orbiting_body": "Earth"
        }
    ],
    "orbital_data": {
        "orbit_id": "1",
        "orbit_determination_date": "2019-05-04 13:42:09",
        "first_observation_date": "2019-05-02",
        "last_observation_date": "2019-05-04",
        "data_arc_in_days": 2,
        "observations_used": 13,
        "orbit_uncertainty": "9",
        "minimum_orbit_intersection": ".13625",
        "jupiter_tisserand_invariant": "4.318",
        "epoch_osculation": "2458606.5",
        "eccentricity": ".286302479535031",
        "semi_major_axis": "1.596985877898793",
        "inclination": "3.506727532528999",
        "ascending_node_longitude": "22.67921306212261",
        "orbital_period": "737.1401054456586",
        "perihelion_distance": "1.13976486127394",
        "perihelion_argument": "181.8839469444835",
        "aphelion_distance": "2.054206894523646",
        "perihelion_time": "2458586.542978856261",
        "mean_anomaly": "9.74648856936421",
        "mean_motion": ".488373916085263",
        "equinox": "J2000",
        "orbit_class": {
            "orbit_class_type": "AMO",
            "orbit_class_description": "Near-Earth asteroid orbits similar to that of 1221 Amor",
            "orbit_class_range": "1.017 AU < q (perihelion) < 1.3 AU"
        }
    },
    "is_sentry_object": false
}